[{"OBJECT_NAME":"STARLINK-5696","OBJECT_ID":"2023-015AM","EPOCH":"2026-03-09T22:00:01.999584","MEAN_MOTION":15.10049659,"ECCENTRICITY":0.00013038,"INCLINATION":42.9992,"RA_OF_ASC_NODE":337.471,"ARG_OF_PERICENTER":241.823,"MEAN_ANOMALY":35.7298,"EPHEMERIS_TYPE":0,"CLASSIFICATION_TYPE":"U","NORAD_CAT_ID":55484,"ELEMENT_SET_NO":999,"REV_AT_EPOCH":567,"BSTAR":0.0011033274,"MEAN_MOTION_DOT":0.00018091,"MEAN_MOTION_DDOT":0},{"OBJECT_NAME":"ARIANE 6 R\/B","OBJECT_ID":"2024-128E","EPOCH":"2026-03-09T18:39:06.277536","MEAN_MOTION":15.00137067,"ECCENTRICITY":0.00536237,"INCLINATION":62.0121,"RA_OF_ASC_NODE":216.5937,"ARG_OF_PERICENTER":115.5687,"MEAN_ANOMALY":245.096,"EPHEMERIS_TYPE":0,"CLASSIFICATION_TYPE":"U","NORAD_CAT_ID":60239,"ELEMENT_SET_NO":999,"REV_AT_EPOCH":9111,"BSTAR":0.00020908474,"MEAN_MOTION_DOT":2.489e-5,"MEAN_MOTION_DDOT":0}]
